NORAD_CAT_ID,OBJECT_NAME,OBJECT_TYPE,EPOCH,MEAN_MOTION,ECCENTRICITY,INCLINATION,RA_OF_ASC_NODE,ARG_OF_PERICENTER,MEAN_ANOMALY,BSTAR,MEAN_MOTION_DOT,MEAN_MOTION_DDOT,TLE_LINE0,TLE_LINE1,TLE_LINE2,SEMIMAJOR_AXIS,PERIOD,APOGEE,PERIGEE,DECAYED
52599.0,STARLINK-4024,PAYLOAD,2024-03-09 02:52:33,15.08840696,0.0001366,53.2184,318.8811,83.2631,276.8517,7.9032e-05,9.7e-06,0.0,0 STARLINK-4024,1 52599U 22052B   24069.11982860  .00000970  00000-0  79032-4 0  9998,2 52599  53.2184 318.8811 0001366  83.2631 276.8517 15.08840696100930,6917.878,95.438,540.688,538.798,0.0
52599.0,STARLINK-4024,PAYLOAD,2024-03-09 09:14:05,15.08850632,0.0001491,53.2193,317.694,85.626,274.4903,0.00027492,4.091e-05,0.0,0 STARLINK-4024,1 52599U 22052B   24069.38478502  .00004091  00000-0  27492-3 0  9990,2 52599  53.2193 317.6940 0001491  85.6260 274.4903 15.08850632101400,6917.848,95.437,540.744,538.681,0.0
52599.0,STARLINK-4024,PAYLOAD,2024-03-10 09:04:53,15.08842337,0.0002558,53.2175,313.2351,85.5617,274.5667,0.00015507,2.181e-05,0.0,0 STARLINK-4024,1 52599U 22052B   24070.37839378  .00002181  00000-0  15507-3 0  9995,2 52599  53.2175 313.2351 0002558  85.5617 274.5667 15.08842337101128,6917.873,95.437,541.508,537.969,0.0
52599.0,STARLINK-4024,PAYLOAD,2024-03-10 20:12:35,15.08829488,0.0001516,53.2168,311.152,87.6441,272.4725,-0.00010864,-2.016e-05,0.0,0 STARLINK-4024,1 52599U 22052B   24070.84207328 -.00002016  00000-0 -10864-3 0  9991,2 52599  53.2168 311.1520 0001516  87.6441 272.4725 15.08829488101197,6917.913,95.438,540.826,538.729,0.0
52599.0,STARLINK-4024,PAYLOAD,2024-03-10 21:47:58,15.0883128,0.000153,53.2179,310.8551,90.0328,270.0839,-0.0001632,-2.884e-05,0.0,0 STARLINK-4024,1 52599U 22052B   24070.90831272 -.00002884  00000-0 -16320-3 0  9995,2 52599  53.2179 310.8551 0001530  90.0328 270.0839 15.08831280101639,6917.907,95.438,540.83,538.714,0.0
52599.0,STARLINK-4024,PAYLOAD,2024-03-11 08:55:40,15.08840381,0.000132,53.2183,308.7739,85.5483,274.566,8.1556e-05,1.01e-05,0.0,0 STARLINK-4024,1 52599U 22052B   24071.37199193  .00001010  00000-0  81556-4 0  9998,2 52599  53.2183 308.7739 0001320  85.5483 274.5660 15.08840381101279,6917.879,95.438,540.657,538.831,0.0
52599.0,STARLINK-4024,PAYLOAD,2024-03-12 21:29:32,15.08837113,0.0001376,53.2162,301.9349,86.3973,273.7176,0.00018871,2.716e-05,0.0,0 STARLINK-4024,1 52599U 22052B   24072.89551917  .00002716  00000-0  18871-3 0  9995,2 52599  53.2162 301.9349 0001376  86.3973 273.7176 15.08837113101937,6917.889,95.438,540.706,538.802,0.0
52599.0,STARLINK-4024,PAYLOAD,2024-03-13 00:40:19,15.08837518,0.0001344,53.2161,301.3406,80.537,279.5774,0.00016772,2.382e-05,0.0,0 STARLINK-4024,1 52599U 22052B   24073.02799932  .00002382  00000-0  16772-3 0  9999,2 52599  53.2161 301.3406 0001344  80.5370 279.5774 15.08837518101528,6917.888,95.438,540.683,538.823,0.0
52599.0,STARLINK-4024,PAYLOAD,2024-03-13 21:20:19,15.08843029,0.0001403,53.2113,297.4703,94.5737,265.5416,0.00011931,1.612e-05,0.0,0 STARLINK-4024,1 52599U 22052B   24073.88911665  .00001612  00000-0  11931-3 0  9999,2 52599  53.2113 297.4703 0001403  94.5737 265.5416 15.08843029102082,6917.871,95.437,540.707,538.766,0.0
52599.0,STARLINK-4024,PAYLOAD,2024-03-14 00:31:05,15.08858561,0.0001382,53.2107,296.8759,96.149,263.9659,-0.00029769,-5.025e-05,0.0,0 STARLINK-4024,1 52599U 22052B   24074.02158668 -.00005025  00000-0 -29769-3 0  9994,2 52599  53.2107 296.8759 0001382  96.1490 263.9659 15.08858561101671,6917.824,95.436,540.645,538.733,0.0
52599.0,STARLINK-4024,PAYLOAD,2024-03-14 21:11:07,15.08820204,0.0001184,53.2171,293.0076,107.1984,252.9138,0.00035215,5.318e-05,0.0,0 STARLINK-4024,1 52599U 22052B   24074.88272228  .00005318  00000-0  35215-3 0  9993,2 52599  53.2171 293.0076 0001184 107.1984 252.9138 15.08820204101802,6917.941,95.439,540.625,538.987,0.0
52599.0,STARLINK-4024,PAYLOAD,2024-03-15 00:21:53,15.08816796,0.0001387,53.2176,292.4148,98.8125,261.3024,0.00036621,5.541e-05,0.0,0 STARLINK-4024,1 52599U 22052B   24075.01520562  .00005541  00000-0  36621-3 0  9996,2 52599  53.2176 292.4148 0001387  98.8125 261.3024 15.08816796102257,6917.951,95.439,540.776,538.857,0.0
52599.0,STARLINK-4024,PAYLOAD,2024-03-16 00:12:42,15.08820929,0.0001314,53.2166,287.9491,124.3916,235.7201,-6.4557e-05,-1.315e-05,0.0,0 STARLINK-4024,1 52599U 22052B   24076.00882128 -.00001315  00000-0 -64557-4 0  9992,2 52599  53.2166 287.9491 0001314 124.3916 235.7201 15.08820929101972,6917.939,95.439,540.713,538.895,0.0
52599.0,STARLINK-4024,PAYLOAD,2024-03-16 14:31:09,15.08837049,7.76e-05,53.2168,285.2815,62.4871,297.62,0.00010984,1.461e-05,0.0,0 STARLINK-4024,1 52599U 22052B   24076.60497135  .00001461  00000-0  10984-3 0  9992,2 52599  53.2168 285.2815 0000776  62.4871 297.6200 15.08837049102493,6917.889,95.438,540.291,539.218,0.0
52599.0,STARLINK-4024,PAYLOAD,2024-03-16 20:52:41,15.0884757,0.0001344,53.2169,284.0968,90.7563,269.3583,0.00032747,4.929e-05,0.0,0 STARLINK-4024,1 52599U 22052B   24076.86992796  .00004929  00000-0  32747-3 0  9996,2 52599  53.2169 284.0968 0001344  90.7563 269.3583 15.08847570102102,6917.857,95.437,540.652,538.792,0.0
52599.0,STARLINK-4024,PAYLOAD,2024-03-17 12:46:32,15.08850319,0.0001306,53.2164,281.1215,84.6984,275.4158,0.00047124,7.222e-05,0.0,0 STARLINK-4024,1 52599U 22052B   24077.53232568  .00007222  00000-0  47124-3 0  9999,2 52599  53.2164 281.1215 0001306  84.6984 275.4158 15.08850319102636,6917.849,95.437,540.617,538.81,0.0
52599.0,STARLINK-4024,PAYLOAD,2024-03-17 20:43:28,15.08852021,0.0001333,53.2165,279.6277,89.6159,270.4985,9.137e-05,1.167e-05,0.0,0 STARLINK-4024,1 52599U 22052B   24077.86352385  .00001167  00000-0  91370-4 0  9990,2 52599  53.2165 279.6277 0001333  89.6159 270.4985 15.08852021102259,6917.844,95.437,540.631,538.786,0.0
52599.0,STARLINK-4024,PAYLOAD,2024-03-18 20:34:15,15.08841662,0.0001262,53.216,275.1685,84.36,275.7536,-0.0001034,-1.933e-05,0.0,0 STARLINK-4024,1 52599U 22052B   24078.85712552 -.00001933  00000-0 -10340-3 0  9996,2 52599  53.2160 275.1685 0001262  84.3600 275.7536 15.08841662102408,6917.875,95.437,540.613,538.867,0.0
52599.0,STARLINK-4024,PAYLOAD,2024-03-18 22:09:38,15.08841737,0.0001274,53.2161,274.871,87.124,272.9898,-0.00010126,-1.899e-05,0.0,0 STARLINK-4024,1 52599U 22052B   24078.92336508 -.00001899  00000-0 -10126-3 0  9990,2 52599  53.2161 274.8710 0001274  87.1240 272.9898 15.08841737102849,6917.875,95.437,540.621,538.859,0.0
52599.0,STARLINK-4024,PAYLOAD,2024-03-19 22:00:25,15.0885195,0.0001686,53.2164,270.4119,65.223,294.8937,0.00022972,3.371e-05,0.0,0 STARLINK-4024,1 52599U 22052B   24079.91696097  .00003371  00000-0  22972-3 0  9999,2 52599  53.2164 270.4119 0001686  65.2230 294.8937 15.08851950102564,6917.844,95.437,540.875,538.543,0.0
52599.0,STARLINK-4024,PAYLOAD,2024-03-20 12:18:53,15.08845049,0.0001518,53.2148,267.7389,66.1312,293.984,0.00012977,1.778e-05,0.0,0 STARLINK-4024,1 52599U 22052B   24080.51312420  .00001778  00000-0  12977-3 0  9995,2 52599  53.2148 267.7389 0001518  66.1312 293.9840 15.08845049103082,6917.865,95.437,540.78,538.68,0.0
52599.0,STARLINK-4024,PAYLOAD,2024-03-20 18:40:26,15.08842915,0.0001268,53.2165,266.542,121.5042,238.6074,9.7969e-05,1.272e-05,0.0,0 STARLINK-4024,1 52599U 22052B   24080.77808242  .00001272  00000-0  97969-4 0  9999,2 52599  53.2165 266.5420 0001268 121.5042 238.6074 15.08842915102692,6917.871,95.437,540.614,538.859,0.0
52599.0,STARLINK-4024,PAYLOAD,2024-03-21 12:09:40,15.08845639,0.0001233,53.2163,263.2731,109.7018,250.4107,3.1248e-05,2.1e-06,0.0,0 STARLINK-4024,1 52599U 22052B   24081.50672285  .00000210  00000-0  31248-4 0  9996,2 52599  53.2163 263.2731 0001233 109.7018 250.4107 15.08845639103238,6917.863,95.437,540.581,538.875,0.0
52599.0,STARLINK-4024,PAYLOAD,2024-03-21 18:31:13,15.08848066,0.0001187,53.2165,262.0848,89.5373,270.5755,8.883e-05,1.126e-05,0.0,0 STARLINK-4024,1 52599U 22052B   24081.77168183  .00001126  00000-0  88830-4 0  9998,2 52599  53.2165 262.0848 0001187  89.5373 270.5755 15.08848066103276,6917.856,95.437,540.542,538.9,0.0
52599.0,STARLINK-4024,PAYLOAD,2024-03-22 16:46:37,15.08843223,0.0001244,53.2156,257.9216,92.1215,267.9919,0.00018031,2.583e-05,0.0,0 STARLINK-4024,1 52599U 22052B   24082.69904324  .00002583  00000-0  18031-3 0  9998,2 52599  53.2156 257.9216 0001244  92.1215 267.9919 15.08843223102986,6917.871,95.437,540.596,538.875,0.0
52599.0,STARLINK-4024,PAYLOAD,2024-03-23 11:51:15,15.08840051,0.0001277,53.2153,254.3532,91.3821,268.7318,5.5246e-05,5.91e-06,0.0,0 STARLINK-4024,1 52599U 22052B   24083.49392523  .00000591  00000-0  55246-4 0  9996,2 52599  53.2153 254.3532 0001277  91.3821 268.7318 15.08840051103108,6917.88,95.438,540.629,538.862,0.0
52599.0,STARLINK-4024,PAYLOAD,2024-03-23 18:12:47,15.08837288,0.000122,53.2163,253.1632,92.2492,267.864,1.2001e-05,-9.7e-07,0.0,0 STARLINK-4024,1 52599U 22052B   24083.75888808 -.00000097  00000-0  12001-4 0  9995,2 52599  53.2163 253.1632 0001220  92.2492 267.8640 15.08837288103576,6917.889,95.438,540.598,538.91,0.0
52599.0,STARLINK-4024,PAYLOAD,2024-03-24 03:45:05,15.08849856,0.0001294,53.2171,251.379,96.0625,264.0514,0.00011025,1.468e-05,0.0,0 STARLINK-4024,1 52599U 22052B   24084.15631604  .00001468  00000-0  11025-3 0  9996,2 52599  53.2171 251.3790 0001294  96.0625 264.0514 15.08849856103204,6917.85,95.437,540.61,538.82,0.0
52599.0,STARLINK-4024,PAYLOAD,2024-03-24 11:42:03,15.08827681,0.0001342,53.217,249.892,90.5669,269.5477,-1.3219e-05,-4.98e-06,0.0,0 STARLINK-4024,1 52599U 22052B   24084.48753490 -.00000498  00000-0 -13219-4 0  9992,2 52599  53.2170 249.8920 0001342  90.5669 269.5477 15.08827681103256,6917.918,95.438,540.711,538.855,0.0
52599.0,STARLINK-4024,PAYLOAD,2024-03-24 14:52:48,15.0883313,0.0001674,53.2185,249.3001,108.2815,251.836,5.2486e-05,5.47e-06,0.0,0 STARLINK-4024,1 52599U 22052B   24084.62001035  .00000547  00000-0  52486-4 0  9991,2 52599  53.2185 249.3001 0001674 108.2815 251.8360 15.08833130103706,6917.901,95.438,540.924,538.608,0.0
